NORAD_CAT_ID,OBJECT_NAME,OBJECT_TYPE,EPOCH,MEAN_MOTION,ECCENTRICITY,INCLINATION,RA_OF_ASC_NODE,ARG_OF_PERICENTER,MEAN_ANOMALY,BSTAR,MEAN_MOTION_DOT,MEAN_MOTION_DDOT,TLE_LINE0,TLE_LINE1,TLE_LINE2,SEMIMAJOR_AXIS,PERIOD,APOGEE,PERIGEE,DECAYED
55416.0,STARLINK-5624,PAYLOAD,2023-02-07 16:00:01,15.71416146,0.0003382,70.0079,70.085,270.7703,305.6025,-0.01109,-0.01273333,0.0,0 STARLINK-5624,1 55416U 23014AB  23038.66668981 -.01273333  00000-0 -11090-1 0  9993,2 55416  70.0079  70.0850 0003382 270.7703 305.6025 15.71416146  1309,6732.986,91.637,357.128,352.574,0.0
55416.0,STARLINK-5624,PAYLOAD,2023-02-07 22:00:00,15.70562454,0.0003579,70.0079,69.381,266.9711,282.8933,-0.0069063,-0.00778279,0.0,0 STARLINK-5624,1 55416U 23014AB  23038.91667824 -.00778279  00000-0 -69063-2 0  9998,2 55416  70.0079  69.3810 0003579 266.9711 282.8933 15.70562454  1330,6735.425,91.687,359.701,354.88,0.0
55416.0,STARLINK-5624,PAYLOAD,2023-02-08 06:00:00,15.69926934,0.0003595,70.0075,68.4436,269.5157,4.1025,-0.00024733,-0.00029851,0.0,0 STARLINK-5624,1 55416U 23014AB  23039.25001157 -.00029851  00000-0 -24733-3 0  9998,2 55416  70.0075  68.4436 0003595 269.5157   4.1025 15.69926934  1399,6737.243,91.724,361.53,356.686,0.0
55416.0,STARLINK-5624,PAYLOAD,2023-02-08 14:00:01,15.6993288,0.0003421,70.006,67.5066,273.8456,83.0852,-2.4726e-05,-3.186e-05,0.0,0 STARLINK-5624,1 55416U 23014AB  23039.58334491 -.00003186  00000-0 -24726-4 0  9990,2 55416  70.0060  67.5066 0003421 273.8456  83.0852 15.69932880  1302,6737.226,91.724,361.396,356.786,0.0
55416.0,STARLINK-5624,PAYLOAD,2023-02-08 22:00:00,15.69861797,0.0003313,70.0041,66.57,265.1123,175.197,0.00088662,0.00107493,0.0,0 STARLINK-5624,1 55416U 23014AB  23039.91667824  .00107493  00000-0  88662-3 0  9998,2 55416  70.0041  66.5700 0003313 265.1123 175.1970 15.69861797  1492,6737.429,91.728,361.527,357.062,0.0
55416.0,STARLINK-5624,PAYLOAD,2023-02-09 12:00:00,15.69847432,0.0003467,70.0012,64.9302,278.8856,217.2925,0.00067496,0.0008148,0.0,0 STARLINK-5624,1 55416U 23014AB  23040.50001157  .00081480  00000-0  67496-3 0  9995,2 55416  70.0012  64.9302 0003467 278.8856 217.2925 15.69847432  1302,6737.471,91.729,361.671,357.0,0.0
55416.0,STARLINK-5624,PAYLOAD,2023-02-09 20:00:01,15.69881126,0.000341,70.0005,63.993,273.571,305.8917,0.00060625,0.00073192,0.0,0 STARLINK-5624,1 55416U 23014AB  23040.83334491  .00073192  00000-0  60625-3 0  9999,2 55416  70.0005  63.9930 0003410 273.5710 305.8917 15.69881126  1649,6737.374,91.727,361.537,356.942,0.0
55416.0,STARLINK-5624,PAYLOAD,2023-02-09 22:00:00,15.69874449,0.0003422,70.0004,63.7588,271.2944,59.0015,0.00084887,0.00102906,0.0,0 STARLINK-5624,1 55416U 23014AB  23040.91667824  .00102906  00000-0  84887-3 0  9999,2 55416  70.0004  63.7588 0003422 271.2944  59.0015 15.69874449  1302,6737.393,91.727,361.564,356.953,0.0
55416.0,STARLINK-5624,PAYLOAD,2023-02-10 02:00:01,15.69930128,0.0003397,70.0005,63.2901,271.5279,280.4156,-6.4447e-06,-9.88e-06,0.0,0 STARLINK-5624,1 55416U 23014AB  23041.08334491 -.00000988  00000-0 -64447-5 0  9990,2 55416  70.0005  63.2901 0003397 271.5279 280.4156 15.69930128  1675,6737.234,91.724,361.388,356.81,0.0
55416.0,STARLINK-5624,PAYLOAD,2023-02-10 04:00:00,15.6994079,0.0003441,70.0004,63.0557,273.0399,29.738,-0.00010785,-0.0001317,0.0,0 STARLINK-5624,1 55416U 23014AB  23041.16667824 -.00013170  00000-0 -10785-3 0  9999,2 55416  70.0004  63.0557 0003441 273.0399  29.7380 15.69940790  1308,6737.203,91.723,361.387,356.75,0.0
55416.0,STARLINK-5624,PAYLOAD,2023-02-10 22:00:00,15.69845353,0.0003292,69.9999,60.9472,265.391,314.909,0.0013148,0.00160414,0.0,0 STARLINK-5624,1 55416U 23014AB  23041.91667824  .00160414  00000-0  13148-2 0  9999,2 55416  69.9999  60.9472 0003292 265.3910 314.9090 15.69845353  1303,6737.476,91.729,361.559,357.123,0.0
55416.0,STARLINK-5624,PAYLOAD,2023-02-11 00:00:00,15.69900587,0.0003261,70.0,60.7131,264.9857,66.1232,0.00064187,0.00077607,0.0,0 STARLINK-5624,1 55416U 23014AB  23042.00001157  .00077607  00000-0  64187-3 0  9992,2 55416  70.0000  60.7131 0003261 264.9857  66.1232 15.69900587  1822,6737.318,91.726,361.38,356.986,0.0
55416.0,STARLINK-5624,PAYLOAD,2023-02-11 18:28:25,15.69934033,0.0003205,70.0013,58.5496,271.8885,88.1944,0.00011407,0.00013531,0.0,0 STARLINK-5624,1 55416U 23014AB  23042.76973723  .00013531  00000-0  11407-3 0  9995,2 55416  70.0013  58.5496 0003205 271.8885  88.1944 15.69934033  1941,6737.223,91.724,361.247,356.928,0.0
55416.0,STARLINK-5624,PAYLOAD,2023-02-12 22:00:00,15.69878776,0.0003177,69.9999,55.324,269.1109,91.202,0.00083939,0.00101755,0.0,0 STARLINK-5624,1 55416U 23014AB  23043.91667824  .00101755  00000-0  83939-3 0  9990,2 55416  69.9999  55.3240 0003177 269.1109  91.2020 15.69878776  2122,6737.381,91.727,361.386,357.105,0.0
55416.0,STARLINK-5624,PAYLOAD,2023-02-13 06:00:00,15.69937109,0.0003344,70.0001,54.3871,272.9691,170.6697,-0.00038294,-0.00046031,0.0,0 STARLINK-5624,1 55416U 23014AB  23044.25001157 -.00046031  00000-0 -38294-3 0  9990,2 55416  70.0001  54.3871 0003344 272.9691 170.6697 15.69937109  2175,6737.214,91.723,361.332,356.826,0.0
55416.0,STARLINK-5624,PAYLOAD,2023-02-13 14:00:01,15.69938449,0.0003364,69.9995,53.4498,274.1954,252.7665,-0.00032475,-0.00039103,0.0,0 STARLINK-5624,1 55416U 23014AB  23044.58334491 -.00039103  00000-0 -32475-3 0  9993,2 55416  69.9995  53.4498 0003364 274.1954 252.7665 15.69938449  1306,6737.21,91.723,361.341,356.809,0.0
55416.0,STARLINK-5624,PAYLOAD,2023-02-13 22:00:00,15.69903469,0.0003406,69.9997,52.5126,266.0967,344.2053,0.0005655,0.00068281,0.0,0 STARLINK-5624,1 55416U 23014AB  23044.91667824  .00068281  00000-0  56550-3 0  9996,2 55416  69.9997  52.5126 0003406 266.0967 344.2053 15.69903469  2287,6737.31,91.725,361.47,356.88,0.0
55416.0,STARLINK-5624,PAYLOAD,2023-02-14 00:00:00,15.69951561,0.0003362,69.9999,52.2784,266.7542,94.368,-0.00018948,-0.0002296,0.0,0 STARLINK-5624,1 55416U 23014AB  23045.00001157 -.00022960  00000-0 -18948-3 0  9993,2 55416  69.9999  52.2784 0003362 266.7542  94.3680 15.69951561  2299,6737.173,91.723,361.303,356.773,0.0
55416.0,STARLINK-5624,PAYLOAD,2023-02-14 12:13:45,15.69935376,0.0003481,70.0008,50.8461,269.9041,90.1756,8.5854e-05,0.00010128,0.0,0 STARLINK-5624,1 55416U 23014AB  23045.50955704  .00010128  00000-0  85854-4 0  9996,2 55416  70.0008  50.8461 0003481 269.9041  90.1756 15.69935376  3318,6737.219,91.724,361.429,356.739,0.0
55416.0,STARLINK-5624,PAYLOAD,2023-02-15 03:31:17,15.69919755,0.0003403,69.9992,49.054,268.8347,91.2459,-1.5235e-06,-3.96e-06,0.0,0 STARLINK-5624,1 55416U 23014AB  23046.14672677 -.00000396  00000-0 -15235-5 0  9997,2 55416  69.9992  49.0540 0003403 268.8347  91.2459 15.69919755  2477,6737.264,91.724,361.421,356.836,0.0
55416.0,STARLINK-5624,PAYLOAD,2023-02-15 12:41:47,15.69932407,0.0003346,69.9986,47.9792,267.9703,92.1109,2.2843e-05,2.536e-05,0.0,0 STARLINK-5624,1 55416U 23014AB  23046.52902192  .00002536  00000-0  22843-4 0  9995,2 55416  69.9986  47.9792 0003346 267.9703  92.1109 15.69932407  3470,6737.227,91.724,361.347,356.838,0.0
55416.0,STARLINK-5624,PAYLOAD,2023-02-15 18:48:47,15.69932619,0.0003209,69.9984,47.2619,265.6093,94.4736,3.5503e-05,4.06e-05,0.0,0 STARLINK-5624,1 55416U 23014AB  23046.78388851  .00004060  00000-0  35503-4 0  9994,2 55416  69.9984  47.2619 0003209 265.6093  94.4736 15.69932619  2570,6737.227,91.724,361.254,356.93,0.0
55416.0,STARLINK-5624,PAYLOAD,2023-02-15 20:20:33,15.69925567,0.0003506,69.9985,47.0836,269.9747,90.1047,1.8862e-05,2.056e-05,0.0,0 STARLINK-5624,1 55416U 23014AB  23046.84760893  .00002056  00000-0  18862-4 0  9993,2 55416  69.9985  47.0836 0003506 269.9747  90.1047 15.69925567  3521,6737.247,91.724,361.474,356.75,0.0
55416.0,STARLINK-5624,PAYLOAD,2023-02-16 02:27:32,15.69949011,0.0003484,69.9988,46.3665,261.7321,98.3479,6.3421e-05,7.428e-05,0.0,0 STARLINK-5624,1 55416U 23014AB  23047.10246410  .00007428  00000-0  63421-4 0  9996,2 55416  69.9988  46.3665 0003484 261.7321  98.3479 15.69949011  2628,6737.18,91.723,361.392,356.698,0.0
55416.0,STARLINK-5624,PAYLOAD,2023-02-16 10:06:20,15.69902358,0.0003407,69.9982,45.4707,270.6103,89.4702,-3.4143e-05,-4.312e-05,0.0,0 STARLINK-5624,1 55416U 23014AB  23047.42106955 -.00004312  00000-0 -34143-4 0  9990,2 55416  69.9982  45.4707 0003407 270.6103  89.4702 15.69902358  2679,6737.313,91.725,361.474,356.883,0.0
55416.0,STARLINK-5624,PAYLOAD,2023-02-16 14:41:35,15.69907295,0.0003294,69.9979,44.933,270.7094,89.3724,-1.1846e-05,-1.636e-05,0.0,0 STARLINK-5624,1 55416U 23014AB  23047.61221963 -.00001636  00000-0 -11846-4 0  9999,2 55416  69.9979  44.9330 0003294 270.7094  89.3724 15.69907295  3641,6737.299,91.725,361.383,356.945,0.0
55416.0,STARLINK-5624,PAYLOAD,2023-02-16 19:16:50,15.69926462,0.0003209,69.9981,44.3955,264.6459,95.4371,1.4375e-05,1.516e-05,0.0,0 STARLINK-5624,1 55416U 23014AB  23047.80336076  .00001516  00000-0  14375-4 0  9997,2 55416  69.9981  44.3955 0003209 264.6459  95.4371 15.69926462  2736,6737.244,91.724,361.271,356.947,0.0
55416.0,STARLINK-5624,PAYLOAD,2023-02-16 20:48:35,15.69921126,0.000333,69.9981,44.2162,270.7142,89.3672,5.8801e-06,4.94e-06,0.0,0 STARLINK-5624,1 55416U 23014AB  23047.86708027  .00000494  00000-0  58801-5 0  9999,2 55416  69.9981  44.2162 0003330 270.7142  89.3672 15.69921126  3680,6737.26,91.724,361.368,356.881,0.0
55416.0,STARLINK-5624,PAYLOAD,2023-02-17 01:23:49,15.69945042,0.0003354,69.998,43.6785,270.7136,89.3675,4.2566e-05,4.913e-05,0.0,0 STARLINK-5624,1 55416U 23014AB  23048.05821723  .00004913  00000-0  42566-4 0  9990,2 55416  69.9980  43.6785 0003354 270.7136  89.3675 15.69945042  2777,6737.191,91.723,361.316,356.797,0.0
55416.0,STARLINK-5624,PAYLOAD,2023-02-17 12:06:07,15.69908302,0.0003384,69.9978,42.4247,274.1432,85.9377,-1.988e-05,-2.601e-05,0.0,0 STARLINK-5624,1 55416U 23014AB  23048.50425375 -.00002601  00000-0 -19880-4 0  9990,2 55416  69.9978  42.4247 0003384 274.1432  85.9377 15.69908302  2841,6737.296,91.725,361.441,356.881,0.0
